OOV-CUBE (TUBSAT-30)    
1 60240U 24128F   26095.31938792  .00003030  00000+0  23670-3 0  9999
2 60240  61.9933 119.5903 0052290 117.8444 242.7959 15.02424921 95169
LPNTSAT-001 (IOD-1)     
1 68408U 26065A   26091.17010600  .00004750  00000+0  23469-3 0  9990
2 68408  97.4137 333.2788 0015408 273.4606  86.4866 15.18233471   574
